<?xml version='1.0' encoding='utf-8'?>
<kml xmlns="http://www.opengis.net/kml/2.2"><Document><name>Mathematical 25-Acre SEZ Overlay</name><Style id="StyleIT"><LineStyle><color>ffc00000</color><width>2</width></LineStyle><PolyStyle><color>B2ff0000</color></PolyStyle></Style><Style id="StyleAero"><LineStyle><color>ff0000c0</color><width>2</width></LineStyle><PolyStyle><color>B20000ff</color></PolyStyle></Style><Style id="StyleBio"><LineStyle><color>ff00c000</color><width>2</width></LineStyle><PolyStyle><color>B200ff00</color></PolyStyle></Style><Folder><name>Spatial Points</name><Placemark><name>WIPRO Limited...</name><description>&lt;h3&gt;SEZ: WIPRO Limited&lt;/h3&gt;&lt;table border='1' cellpadding='4' style='border-collapse: collapse; width: 100%; font-family: sans-serif; font-size: 13px;'&gt;&lt;tr style='background-color: #f2f2f2;'&gt;&lt;th style='text-align: left;'&gt;Type&lt;/th&gt;&lt;th style='text-align: left;'&gt;Location&lt;/th&gt;&lt;th style='text-align: left;'&gt;Enriched Metrics&lt;/th&gt;&lt;/tr&gt;&lt;tr&gt;&lt;td&gt;IT&lt;/td&gt;&lt;td&gt;Doddathogur Village, Begur Hobli, Electronic City, Banglore, Karnataka&lt;/td&gt;&lt;td&gt;&lt;b&gt;Varies Acres&lt;/b&gt; &lt;br&gt; Major cluster &lt;br&gt; &lt;i&gt;Multiple massive ORR/ECity parks&lt;/i&gt;&lt;/td&gt;&lt;/tr&gt;&lt;/table&gt;</description><styleUrl>#StyleIT</styleUrl><Polygon><outerBoundaryIs><LinearRing><coordinates>77.65301971941032,12.8474773,0 77.65299460025426,12.847757225512238,0 77.65292000601895,12.848028645629434,0 77.65279820321246,12.848283313388675,0 77.65263289275143,12.848513490838965,0 77.65242909751058,12.84871218415495,0 77.65219300970516,12.848873356140768,0 77.6519318027437,12.848992109667186,0 77.65165341326752,12.849064836468399,0 77.6513663,12.849089326777351,0 77.65107918673249,12.849064836468399,0 77.65080079725631,12.848992109667186,0 77.65053959029485,12.848873356140768,0 77.65030350248944,12.84871218415495,0 77.65009970724859,12.848513490838965,0 77.64993439678756,12.848283313388675,0 77.64981259398107,12.848028645629434,0 77.64973799974575,12.847757225512238,0 77.64971288058969,12.8474773,0 77.64973799974575,12.847197374487761,0 77.64981259398107,12.846925954370565,0 77.64993439678756,12.846671286611324,0 77.65009970724859,12.846441109161034,0 77.65030350248944,12.84624241584505,0 77.65053959029485,12.846081243859231,0 77.65080079725631,12.845962490332813,0 77.65107918673249,12.8458897635316,0 77.6513663,12.845865273222648,0 77.65165341326752,12.8458897635316,0 77.6519318027437,12.845962490332813,0 77.65219300970516,12.846081243859231,0 77.65242909751058,12.84624241584505,0 77.65263289275143,12.846441109161034,0 77.65279820321246,12.846671286611324,0 77.65292000601895,12.846925954370565,0 77.65299460025426,12.847197374487761,0 77.65301971941032,12.8474773,0</coordinates></LinearRing></outerBoundaryIs></Polygon></Placemark><Placemark><name>WIPRO Limited...</name><description>&lt;h3&gt;SEZ: WIPRO Limited&lt;/h3&gt;&lt;table border='1' cellpadding='4' style='border-collapse: collapse; width: 100%; font-family: sans-serif; font-size: 13px;'&gt;&lt;tr style='background-color: #f2f2f2;'&gt;&lt;th style='text-align: left;'&gt;Type&lt;/th&gt;&lt;th style='text-align: left;'&gt;Location&lt;/th&gt;&lt;th style='text-align: left;'&gt;Enriched Metrics&lt;/th&gt;&lt;/tr&gt;&lt;tr&gt;&lt;td&gt;IT&lt;/td&gt;&lt;td&gt;Doddakannelli Village, Varthur Hobli, Sarjapur Road, Banglore, Karnataka&lt;/td&gt;&lt;td&gt;&lt;b&gt;Varies Acres&lt;/b&gt; &lt;br&gt; Major cluster &lt;br&gt; &lt;i&gt;Multiple massive ORR/ECity parks&lt;/i&gt;&lt;/td&gt;&lt;/tr&gt;&lt;/table&gt;</description><styleUrl>#StyleIT</styleUrl><Polygon><outerBoundaryIs><LinearRing><coordinates>77.68949763084372,12.9098272,0 77.68947250543707,12.910107125512239,0 77.68939789263987,12.910378545629435,0 77.68927605952422,12.910633213388676,0 77.68911070792768,12.910863390838966,0 77.68890686197486,12.91106208415495,0 77.68867071542185,12.911223256140769,0 77.6884094434622,12.911342009667187,0 77.68813098471217,12.9114147364684,0 77.6878438,12.911439226777352,0 77.68755661528782,12.9114147364684,0 77.68727815653779,12.911342009667187,0 77.68701688457814,12.911223256140769,0 77.68678073802513,12.91106208415495,0 77.68657689207231,12.910863390838966,0 77.68641154047577,12.910633213388676,0 77.68628970736012,12.910378545629435,0 77.68621509456293,12.910107125512239,0 77.68618996915627,12.9098272,0 77.68621509456293,12.909547274487762,0 77.68628970736012,12.909275854370566,0 77.68641154047577,12.909021186611325,0 77.68657689207231,12.908791009161035,0 77.68678073802513,12.90859231584505,0 77.68701688457814,12.908431143859232,0 77.68727815653779,12.908312390332814,0 77.68755661528782,12.908239663531601,0 77.6878438,12.908215173222649,0 77.68813098471217,12.908239663531601,0 77.6884094434622,12.908312390332814,0 77.68867071542185,12.908431143859232,0 77.68890686197486,12.90859231584505,0 77.68911070792768,12.908791009161035,0 77.68927605952422,12.909021186611325,0 77.68939789263987,12.909275854370566,0 77.68947250543707,12.909547274487762,0 77.68949763084372,12.9098272,0</coordinates></LinearRing></outerBoundaryIs></Polygon></Placemark><Placemark><name>Biocon Limited....</name><description>&lt;h3&gt;SEZ: Biocon Limited.&lt;/h3&gt;&lt;table border='1' cellpadding='4' style='border-collapse: collapse; width: 100%; font-family: sans-serif; font-size: 13px;'&gt;&lt;tr style='background-color: #f2f2f2;'&gt;&lt;th style='text-align: left;'&gt;Type&lt;/th&gt;&lt;th style='text-align: left;'&gt;Location&lt;/th&gt;&lt;th style='text-align: left;'&gt;Enriched Metrics&lt;/th&gt;&lt;/tr&gt;&lt;tr&gt;&lt;td&gt;Bio-technology&lt;/td&gt;&lt;td&gt;Anekal Taluk, Banglore, Karnataka&lt;/td&gt;&lt;td&gt;No specific gathered data&lt;/td&gt;&lt;/tr&gt;&lt;/table&gt;</description><styleUrl>#StyleBio</styleUrl><Polygon><outerBoundaryIs><LinearRing><coordinates>77.69645472092671,12.7101637,0 77.69642961542063,12.710443625512239,0 77.69635506172051,12.710715045629435,0 77.69623332510281,12.710969713388677,0 77.69606810447304,12.711199890838966,0 77.69586441997643,12.711398584154951,0 77.69562846046335,12.711559756140769,0 77.6953673954442,12.711678509667188,0 77.69508915724748,12.7117512364684,0 77.6948022,12.711775726777352,0 77.69451524275252,12.7117512364684,0 77.6942370045558,12.711678509667188,0 77.69397593953664,12.711559756140769,0 77.69373998002357,12.711398584154951,0 77.69353629552695,12.711199890838966,0 77.69337107489719,12.710969713388677,0 77.69324933827949,12.710715045629435,0 77.69317478457937,12.710443625512239,0 77.69314967907329,12.7101637,0 77.69317478457937,12.709883774487762,0 77.69324933827949,12.709612354370567,0 77.69337107489719,12.709357686611325,0 77.69353629552695,12.709127509161036,0 77.69373998002357,12.70892881584505,0 77.69397593953664,12.708767643859233,0 77.6942370045558,12.708648890332814,0 77.69451524275252,12.708576163531601,0 77.6948022,12.70855167322265,0 77.69508915724748,12.708576163531601,0 77.6953673954442,12.708648890332814,0 77.69562846046335,12.708767643859233,0 77.69586441997643,12.70892881584505,0 77.69606810447304,12.709127509161036,0 77.69623332510281,12.709357686611325,0 77.69635506172051,12.709612354370567,0 77.69642961542063,12.709883774487762,0 77.69645472092671,12.7101637,0</coordinates></LinearRing></outerBoundaryIs></Polygon></Placemark><Placemark><name>Vikas Telecom Private Limited (formerly ...</name><description>&lt;h3&gt;SEZ: Vikas Telecom Private Limited (formerly Vikas Telecom Limited)&lt;/h3&gt;&lt;table border='1' cellpadding='4' style='border-collapse: collapse; width: 100%; font-family: sans-serif; font-size: 13px;'&gt;&lt;tr style='background-color: #f2f2f2;'&gt;&lt;th style='text-align: left;'&gt;Type&lt;/th&gt;&lt;th style='text-align: left;'&gt;Location&lt;/th&gt;&lt;th style='text-align: left;'&gt;Enriched Metrics&lt;/th&gt;&lt;/tr&gt;&lt;tr&gt;&lt;td&gt;IT/ITES&lt;/td&gt;&lt;td&gt;Outer Ring Road, Devarabeesanhalli Village, Varthur Hoblic, Bangalore East Taluk, Karnataka&lt;/td&gt;&lt;td&gt;No specific gathered data&lt;/td&gt;&lt;/tr&gt;&lt;/table&gt;</description><styleUrl>#StyleIT</styleUrl><Polygon><outerBoundaryIs><LinearRing><coordinates>77.6022145145016,12.9073569,0 77.60218938934321,12.907636825512238,0 77.60211477728329,12.907908245629434,0 77.60199294537152,12.908162913388676,0 77.60182759540889,12.908393090838965,0 77.60162375147034,12.90859178415495,0 77.6013876072508,12.908752956140768,0 77.60112633787287,12.908871709667187,0 77.6008478818744,12.9089444364684,0 77.6005607,12.908968926777352,0 77.6002735181256,12.9089444364684,0 77.59999506212714,12.908871709667187,0 77.5997337927492,12.908752956140768,0 77.59949764852966,12.90859178415495,0 77.59929380459111,12.908393090838965,0 77.59912845462848,12.908162913388676,0 77.59900662271671,12.907908245629434,0 77.5989320106568,12.907636825512238,0 77.59890688549841,12.9073569,0 77.5989320106568,12.907076974487762,0 77.59900662271671,12.906805554370566,0 77.59912845462848,12.906550886611324,0 77.59929380459111,12.906320709161035,0 77.59949764852966,12.90612201584505,0 77.5997337927492,12.905960843859232,0 77.59999506212714,12.905842090332813,0 77.6002735181256,12.9057693635316,0 77.6005607,12.905744873222648,0 77.6008478818744,12.9057693635316,0 77.60112633787287,12.905842090332813,0 77.6013876072508,12.905960843859232,0 77.60162375147034,12.90612201584505,0 77.60182759540889,12.906320709161035,0 77.60199294537152,12.906550886611324,0 77.60211477728329,12.906805554370566,0 77.60218938934321,12.907076974487762,0 77.6022145145016,12.9073569,0</coordinates></LinearRing></outerBoundaryIs></Polygon></Placemark><Placemark><name>Arliga Ecoworld Infrastructure Pvt. Ltd....</name><description>&lt;h3&gt;SEZ: Arliga Ecoworld Infrastructure Pvt. Ltd. (formerly RMZ Ecoworld Infrastructure Pvt. Ltd. / Adarsh Prime Projects Private Limited)&lt;/h3&gt;&lt;table border='1' cellpadding='4' style='border-collapse: collapse; width: 100%; font-family: sans-serif; font-size: 13px;'&gt;&lt;tr style='background-color: #f2f2f2;'&gt;&lt;th style='text-align: left;'&gt;Type&lt;/th&gt;&lt;th style='text-align: left;'&gt;Location&lt;/th&gt;&lt;th style='text-align: left;'&gt;Enriched Metrics&lt;/th&gt;&lt;/tr&gt;&lt;tr&gt;&lt;td&gt;IT/ITES&lt;/td&gt;&lt;td&gt;Devarabeesanahalli, Bhoganahalli and Doddakannahalli Villages, Varthur Hobli, Bangalore, Karnataka&lt;/td&gt;&lt;td&gt;&lt;b&gt;80+ Acres&lt;/b&gt; &lt;br&gt; ~65,000 &lt;br&gt; &lt;i&gt;RMZ Ecoworld, major ORR tech park&lt;/i&gt;&lt;/td&gt;&lt;/tr&gt;&lt;/table&gt;</description><styleUrl>#StyleIT</styleUrl><Polygon><outerBoundaryIs><LinearRing><coordinates>77.69116754362764,12.9268618,0 77.69114241650755,12.927141725512238,0 77.69106779862209,12.927413145629433,0 77.69094595719797,12.927667813388675,0 77.69078059432519,12.927897990838964,0 77.69057673447097,12.92809668415495,0 77.69034057181382,12.928257856140768,0 77.69007928203658,12.928376609667186,0 77.68980080429691,12.928449336468399,0 77.6895136,12.928473826777351,0 77.68922639570309,12.928449336468399,0 77.68894791796342,12.928376609667186,0 77.68868662818618,12.928257856140768,0 77.68845046552903,12.92809668415495,0 77.6882466056748,12.927897990838964,0 77.68808124280203,12.927667813388675,0 77.68795940137791,12.927413145629433,0 77.68788478349245,12.927141725512238,0 77.68785965637235,12.9268618,0 77.68788478349245,12.926581874487761,0 77.68795940137791,12.926310454370565,0 77.68808124280203,12.926055786611323,0 77.6882466056748,12.925825609161034,0 77.68845046552903,12.925626915845049,0 77.68868662818618,12.925465743859231,0 77.68894791796342,12.925346990332812,0 77.68922639570309,12.9252742635316,0 77.6895136,12.925249773222648,0 77.68980080429691,12.9252742635316,0 77.69007928203658,12.925346990332812,0 77.69034057181382,12.925465743859231,0 77.69057673447097,12.925626915845049,0 77.69078059432519,12.925825609161034,0 77.69094595719797,12.926055786611323,0 77.69106779862209,12.926310454370565,0 77.69114241650755,12.926581874487761,0 77.69116754362764,12.9268618,0</coordinates></LinearRing></outerBoundaryIs></Polygon></Placemark><Placemark><name>Cessna Business Park Pvt. Ltd. (formerly...</name><description>&lt;h3&gt;SEZ: Cessna Business Park Pvt. Ltd. (formerly Cessna Garden Developers Pvt. Ltd.)&lt;/h3&gt;&lt;table border='1' cellpadding='4' style='border-collapse: collapse; width: 100%; font-family: sans-serif; font-size: 13px;'&gt;&lt;tr style='background-color: #f2f2f2;'&gt;&lt;th style='text-align: left;'&gt;Type&lt;/th&gt;&lt;th style='text-align: left;'&gt;Location&lt;/th&gt;&lt;th style='text-align: left;'&gt;Enriched Metrics&lt;/th&gt;&lt;/tr&gt;&lt;tr&gt;&lt;td&gt;IT/ITES&lt;/td&gt;&lt;td&gt;Kadubeesanahalli Vill, Varthur Hobli, District Banglore, Karnataka&lt;/td&gt;&lt;td&gt;&lt;b&gt;~22 Acres&lt;/b&gt; &lt;br&gt; ~40,000 &lt;br&gt; &lt;i&gt;Hosts Cisco, HCL, Accenture, etc.&lt;/i&gt;&lt;/td&gt;&lt;/tr&gt;&lt;/table&gt;</description><styleUrl>#StyleIT</styleUrl><Polygon><outerBoundaryIs><LinearRing><coordinates>77.68949763084372,12.9098272,0 77.68947250543707,12.910107125512239,0 77.68939789263987,12.910378545629435,0 77.68927605952422,12.910633213388676,0 77.68911070792768,12.910863390838966,0 77.68890686197486,12.91106208415495,0 77.68867071542185,12.911223256140769,0 77.6884094434622,12.911342009667187,0 77.68813098471217,12.9114147364684,0 77.6878438,12.911439226777352,0 77.68755661528782,12.9114147364684,0 77.68727815653779,12.911342009667187,0 77.68701688457814,12.911223256140769,0 77.68678073802513,12.91106208415495,0 77.68657689207231,12.910863390838966,0 77.68641154047577,12.910633213388676,0 77.68628970736012,12.910378545629435,0 77.68621509456293,12.910107125512239,0 77.68618996915627,12.9098272,0 77.68621509456293,12.909547274487762,0 77.68628970736012,12.909275854370566,0 77.68641154047577,12.909021186611325,0 77.68657689207231,12.908791009161035,0 77.68678073802513,12.90859231584505,0 77.68701688457814,12.908431143859232,0 77.68727815653779,12.908312390332814,0 77.68755661528782,12.908239663531601,0 77.6878438,12.908215173222649,0 77.68813098471217,12.908239663531601,0 77.6884094434622,12.908312390332814,0 77.68867071542185,12.908431143859232,0 77.68890686197486,12.90859231584505,0 77.68911070792768,12.908791009161035,0 77.68927605952422,12.909021186611325,0 77.68939789263987,12.909275854370566,0 77.68947250543707,12.909547274487762,0 77.68949763084372,12.9098272,0</coordinates></LinearRing></outerBoundaryIs></Polygon></Placemark><Placemark><name>HCL Technologies Ltd....</name><description>&lt;h3&gt;SEZ: HCL Technologies Ltd.&lt;/h3&gt;&lt;table border='1' cellpadding='4' style='border-collapse: collapse; width: 100%; font-family: sans-serif; font-size: 13px;'&gt;&lt;tr style='background-color: #f2f2f2;'&gt;&lt;th style='text-align: left;'&gt;Type&lt;/th&gt;&lt;th style='text-align: left;'&gt;Location&lt;/th&gt;&lt;th style='text-align: left;'&gt;Enriched Metrics&lt;/th&gt;&lt;/tr&gt;&lt;tr&gt;&lt;td&gt;IT/ITES&lt;/td&gt;&lt;td&gt;Jigani Industrial Area, Attibele Taluka, Bangalore, Karnataka&lt;/td&gt;&lt;td&gt;No specific gathered data&lt;/td&gt;&lt;/tr&gt;&lt;/table&gt;</description><styleUrl>#StyleIT</styleUrl><Polygon><outerBoundaryIs><LinearRing><coordinates>77.63607128378047,12.7811006,0 77.6360461712426,12.781380525512239,0 77.63597159666078,12.781651945629434,0 77.63584982594593,12.781906613388676,0 77.63568455903959,12.782136790838965,0 77.63548081749309,12.78233548415495,0 77.63524479189023,12.782496656140768,0 77.6349836537495,12.782615409667187,0 77.63470533762118,12.7826881364684,0 77.6344183,12.782712626777352,0 77.6341312623788,12.7826881364684,0 77.63385294625049,12.782615409667187,0 77.63359180810976,12.782496656140768,0 77.6333557825069,12.78233548415495,0 77.6331520409604,12.782136790838965,0 77.63298677405406,12.781906613388676,0 77.6328650033392,12.781651945629434,0 77.63279042875739,12.781380525512239,0 77.63276531621952,12.7811006,0 77.63279042875739,12.780820674487762,0 77.6328650033392,12.780549254370566,0 77.63298677405406,12.780294586611324,0 77.6331520409604,12.780064409161035,0 77.6333557825069,12.77986571584505,0 77.63359180810976,12.779704543859232,0 77.63385294625049,12.779585790332813,0 77.6341312623788,12.779513063531601,0 77.6344183,12.779488573222649,0 77.63470533762118,12.779513063531601,0 77.6349836537495,12.779585790332813,0 77.63524479189023,12.779704543859232,0 77.63548081749309,12.77986571584505,0 77.63568455903959,12.780064409161035,0 77.63584982594593,12.780294586611324,0 77.63597159666078,12.780549254370566,0 77.6360461712426,12.780820674487762,0 77.63607128378047,12.7811006,0</coordinates></LinearRing></outerBoundaryIs></Polygon></Placemark><Placemark><name>Information Technology Park Limited...</name><description>&lt;h3&gt;SEZ: Information Technology Park Limited&lt;/h3&gt;&lt;table border='1' cellpadding='4' style='border-collapse: collapse; width: 100%; font-family: sans-serif; font-size: 13px;'&gt;&lt;tr style='background-color: #f2f2f2;'&gt;&lt;th style='text-align: left;'&gt;Type&lt;/th&gt;&lt;th style='text-align: left;'&gt;Location&lt;/th&gt;&lt;th style='text-align: left;'&gt;Enriched Metrics&lt;/th&gt;&lt;/tr&gt;&lt;tr&gt;&lt;td&gt;IT/ITES&lt;/td&gt;&lt;td&gt;Sadaramangala and Pattandur Agrahara Village, Whitefield Road, District Bangalore, Karnataka&lt;/td&gt;&lt;td&gt;&lt;b&gt;69 Acres&lt;/b&gt; &lt;br&gt; ~55,000+ &lt;br&gt; &lt;i&gt;ITPB / Whitefield pioneer SEZ&lt;/i&gt;&lt;/td&gt;&lt;/tr&gt;&lt;/table&gt;</description><styleUrl>#StyleIT</styleUrl><Polygon><outerBoundaryIs><LinearRing><coordinates>77.68186203330606,13.0005404,0 77.68183689874665,13.000820325512239,0 77.6817622587693,13.001091745629434,0 77.68164038127192,13.001346413388676,0 77.68147496944061,13.001576590838965,0 77.68127104923019,13.00177528415495,0 77.68103481665304,13.001936456140768,0 77.68077344951647,13.002055209667187,0 77.68049488932867,13.0021279364684,0 77.6802076,13.002152426777352,0 77.67992031067133,13.0021279364684,0 77.67964175048354,13.002055209667187,0 77.67938038334697,13.001936456140768,0 77.67914415076982,13.00177528415495,0 77.67894023055939,13.001576590838965,0 77.67877481872809,13.001346413388676,0 77.67865294123071,13.001091745629434,0 77.67857830125335,13.000820325512239,0 77.67855316669394,13.0005404,0 77.67857830125335,13.000260474487762,0 77.67865294123071,12.999989054370566,0 77.67877481872809,12.999734386611324,0 77.67894023055939,12.999504209161035,0 77.67914415076982,12.99930551584505,0 77.67938038334697,12.999144343859232,0 77.67964175048354,12.999025590332813,0 77.67992031067133,12.998952863531601,0 77.6802076,12.998928373222649,0 77.68049488932867,12.998952863531601,0 77.68077344951647,12.999025590332813,0 77.68103481665304,12.999144343859232,0 77.68127104923019,12.99930551584505,0 77.68147496944061,12.999504209161035,0 77.68164038127192,12.999734386611324,0 77.6817622587693,12.999989054370566,0 77.68183689874665,13.000260474487762,0 77.68186203330606,13.0005404,0</coordinates></LinearRing></outerBoundaryIs></Polygon></Placemark><Placemark><name>Pritech Park (formerly Primal Projects P...</name><description>&lt;h3&gt;SEZ: Pritech Park (formerly Primal Projects Private Limited)&lt;/h3&gt;&lt;table border='1' cellpadding='4' style='border-collapse: collapse; width: 100%; font-family: sans-serif; font-size: 13px;'&gt;&lt;tr style='background-color: #f2f2f2;'&gt;&lt;th style='text-align: left;'&gt;Type&lt;/th&gt;&lt;th style='text-align: left;'&gt;Location&lt;/th&gt;&lt;th style='text-align: left;'&gt;Enriched Metrics&lt;/th&gt;&lt;/tr&gt;&lt;tr&gt;&lt;td&gt;IT/ITES&lt;/td&gt;&lt;td&gt;Bellandur Village, Varthur Hobli, Bangalore East Taluk, Bangalore Urban District, Karnataka&lt;/td&gt;&lt;td&gt;No specific gathered data&lt;/td&gt;&lt;/tr&gt;&lt;/table&gt;</description><styleUrl>#StyleIT</styleUrl><Polygon><outerBoundaryIs><LinearRing><coordinates>77.68949763084372,12.9098272,0 77.68947250543707,12.910107125512239,0 77.68939789263987,12.910378545629435,0 77.68927605952422,12.910633213388676,0 77.68911070792768,12.910863390838966,0 77.68890686197486,12.91106208415495,0 77.68867071542185,12.911223256140769,0 77.6884094434622,12.911342009667187,0 77.68813098471217,12.9114147364684,0 77.6878438,12.911439226777352,0 77.68755661528782,12.9114147364684,0 77.68727815653779,12.911342009667187,0 77.68701688457814,12.911223256140769,0 77.68678073802513,12.91106208415495,0 77.68657689207231,12.910863390838966,0 77.68641154047577,12.910633213388676,0 77.68628970736012,12.910378545629435,0 77.68621509456293,12.910107125512239,0 77.68618996915627,12.9098272,0 77.68621509456293,12.909547274487762,0 77.68628970736012,12.909275854370566,0 77.68641154047577,12.909021186611325,0 77.68657689207231,12.908791009161035,0 77.68678073802513,12.90859231584505,0 77.68701688457814,12.908431143859232,0 77.68727815653779,12.908312390332814,0 77.68755661528782,12.908239663531601,0 77.6878438,12.908215173222649,0 77.68813098471217,12.908239663531601,0 77.6884094434622,12.908312390332814,0 77.68867071542185,12.908431143859232,0 77.68890686197486,12.90859231584505,0 77.68911070792768,12.908791009161035,0 77.68927605952422,12.909021186611325,0 77.68939789263987,12.909275854370566,0 77.68947250543707,12.909547274487762,0 77.68949763084372,12.9098272,0</coordinates></LinearRing></outerBoundaryIs></Polygon></Placemark><Placemark><name>Bagmane Developers Pvt. Ltd. (Formerly B...</name><description>&lt;h3&gt;SEZ: Bagmane Developers Pvt. Ltd. (Formerly Bagmane Construction Pvt. Ltd.)&lt;/h3&gt;&lt;table border='1' cellpadding='4' style='border-collapse: collapse; width: 100%; font-family: sans-serif; font-size: 13px;'&gt;&lt;tr style='background-color: #f2f2f2;'&gt;&lt;th style='text-align: left;'&gt;Type&lt;/th&gt;&lt;th style='text-align: left;'&gt;Location&lt;/th&gt;&lt;th style='text-align: left;'&gt;Enriched Metrics&lt;/th&gt;&lt;/tr&gt;&lt;tr&gt;&lt;td&gt;IT/ITES&lt;/td&gt;&lt;td&gt;Mahadevapura, K R Puram, Bangalore North, Karnataka&lt;/td&gt;&lt;td&gt;No specific gathered data&lt;/td&gt;&lt;/tr&gt;&lt;/table&gt;</description><styleUrl>#StyleIT</styleUrl><Polygon><outerBoundaryIs><LinearRing><coordinates>77.69788750291868,12.9809663,0 77.69786237034015,12.981246225512239,0 77.69778773624523,12.981517645629435,0 77.69766586835313,12.981772313388676,0 77.6975004695581,12.982002490838966,0 77.6972965654188,12.98220118415495,0 77.69706035145934,12.982362356140769,0 77.69679900492135,12.982481109667187,0 77.69652046668713,12.9825538364684,0 77.6962332,12.982578326777352,0 77.69594593331286,12.9825538364684,0 77.69566739507864,12.982481109667187,0 77.69540604854065,12.982362356140769,0 77.6951698345812,12.98220118415495,0 77.6949659304419,12.982002490838966,0 77.69480053164686,12.981772313388676,0 77.69467866375476,12.981517645629435,0 77.69460402965984,12.981246225512239,0 77.69457889708131,12.9809663,0 77.69460402965984,12.980686374487762,0 77.69467866375476,12.980414954370566,0 77.69480053164686,12.980160286611325,0 77.6949659304419,12.979930109161035,0 77.6951698345812,12.97973141584505,0 77.69540604854065,12.979570243859232,0 77.69566739507864,12.979451490332814,0 77.69594593331286,12.979378763531601,0 77.6962332,12.979354273222649,0 77.69652046668713,12.979378763531601,0 77.69679900492135,12.979451490332814,0 77.69706035145934,12.979570243859232,0 77.6972965654188,12.97973141584505,0 77.6975004695581,12.979930109161035,0 77.69766586835313,12.980160286611325,0 77.69778773624523,12.980414954370566,0 77.69786237034015,12.980686374487762,0 77.69788750291868,12.9809663,0</coordinates></LinearRing></outerBoundaryIs></Polygon></Placemark><Placemark><name>Gopalan Enterprises (India) Private Limi...</name><description>&lt;h3&gt;SEZ: Gopalan Enterprises (India) Private Limited.&lt;/h3&gt;&lt;table border='1' cellpadding='4' style='border-collapse: collapse; width: 100%; font-family: sans-serif; font-size: 13px;'&gt;&lt;tr style='background-color: #f2f2f2;'&gt;&lt;th style='text-align: left;'&gt;Type&lt;/th&gt;&lt;th style='text-align: left;'&gt;Location&lt;/th&gt;&lt;th style='text-align: left;'&gt;Enriched Metrics&lt;/th&gt;&lt;/tr&gt;&lt;tr&gt;&lt;td&gt;IT/IT enabled services&lt;/td&gt;&lt;td&gt;Hoodi Village, K.R. Puram, Whitefield, Banglore, Karnataka.&lt;/td&gt;&lt;td&gt;No specific gathered data&lt;/td&gt;&lt;/tr&gt;&lt;/table&gt;</description><styleUrl>#StyleIT</styleUrl><Polygon><outerBoundaryIs><LinearRing><coordinates>77.67711053334406,13.0005461,0 77.67708539878407,13.000826025512238,0 77.677010758805,13.001097445629433,0 77.67688888130483,13.001352113388675,0 77.67672346946974,13.001582290838964,0 77.67651954925462,13.00178098415495,0 77.67628331667204,13.001942156140768,0 77.67602194952947,13.002060909667186,0 77.67574338933527,13.002133636468399,0 77.6754561,13.002158126777351,0 77.67516881066474,13.002133636468399,0 77.67489025047054,13.002060909667186,0 77.67462888332797,13.001942156140768,0 77.67439265074539,13.00178098415495,0 77.67418873053028,13.001582290838964,0 77.67402331869518,13.001352113388675,0 77.67390144119501,13.001097445629433,0 77.67382680121594,13.000826025512238,0 77.67380166665595,13.0005461,0 77.67382680121594,13.000266174487761,0 77.67390144119501,12.999994754370565,0 77.67402331869518,12.999740086611324,0 77.67418873053028,12.999509909161034,0 77.67439265074539,12.999311215845049,0 77.67462888332797,12.999150043859231,0 77.67489025047054,12.999031290332812,0 77.67516881066474,12.9989585635316,0 77.6754561,12.998934073222648,0 77.67574338933527,12.9989585635316,0 77.67602194952947,12.999031290332812,0 77.67628331667204,12.999150043859231,0 77.67651954925462,12.999311215845049,0 77.67672346946974,12.999509909161034,0 77.67688888130483,12.999740086611324,0 77.677010758805,12.999994754370565,0 77.67708539878407,13.000266174487761,0 77.67711053334406,13.0005461,0</coordinates></LinearRing></outerBoundaryIs></Polygon></Placemark><Placemark><name>Milestone Buildcon Private Limited...</name><description>&lt;h3&gt;SEZ: Milestone Buildcon Private Limited&lt;/h3&gt;&lt;table border='1' cellpadding='4' style='border-collapse: collapse; width: 100%; font-family: sans-serif; font-size: 13px;'&gt;&lt;tr style='background-color: #f2f2f2;'&gt;&lt;th style='text-align: left;'&gt;Type&lt;/th&gt;&lt;th style='text-align: left;'&gt;Location&lt;/th&gt;&lt;th style='text-align: left;'&gt;Enriched Metrics&lt;/th&gt;&lt;/tr&gt;&lt;tr&gt;&lt;td&gt;IT/ITES&lt;/td&gt;&lt;td&gt;Village Chokkanahalli, Taluka Yelahanka Hobli Bangalore North, Karnataka&lt;/td&gt;&lt;td&gt;No specific gathered data&lt;/td&gt;&lt;/tr&gt;&lt;/table&gt;</description><styleUrl>#StyleIT</styleUrl><Polygon><outerBoundaryIs><LinearRing><coordinates>77.6889959880826,13.1132252,0 77.68897084205643,13.113505125512239,0 77.68889616802723,13.113776545629435,0 77.68877423492758,13.114031213388676,0 77.688608747633,13.114261390838966,0 77.6884047343912,13.11446008415495,0 77.6881683940413,13.114621256140769,0 77.68790690766524,13.114740009667187,0 77.68762822039425,13.1148127364684,0 77.6873408,13.114837226777352,0 77.68705337960576,13.1148127364684,0 77.68677469233477,13.114740009667187,0 77.6865132059587,13.114621256140769,0 77.6862768656088,13.11446008415495,0 77.686072852367,13.114261390838966,0 77.68590736507242,13.114031213388676,0 77.68578543197277,13.113776545629435,0 77.68571075794357,13.113505125512239,0 77.6856856119174,13.1132252,0 77.68571075794357,13.112945274487762,0 77.68578543197277,13.112673854370566,0 77.68590736507242,13.112419186611325,0 77.686072852367,13.112189009161035,0 77.6862768656088,13.11199031584505,0 77.6865132059587,13.111829143859232,0 77.68677469233477,13.111710390332814,0 77.68705337960576,13.111637663531601,0 77.6873408,13.111613173222649,0 77.68762822039425,13.111637663531601,0 77.68790690766524,13.111710390332814,0 77.6881683940413,13.111829143859232,0 77.6884047343912,13.11199031584505,0 77.688608747633,13.112189009161035,0 77.68877423492758,13.112419186611325,0 77.68889616802723,13.112673854370566,0 77.68897084205643,13.112945274487762,0 77.6889959880826,13.1132252,0</coordinates></LinearRing></outerBoundaryIs></Polygon></Placemark><Placemark><name>Wipro Limited....</name><description>&lt;h3&gt;SEZ: Wipro Limited.&lt;/h3&gt;&lt;table border='1' cellpadding='4' style='border-collapse: collapse; width: 100%; font-family: sans-serif; font-size: 13px;'&gt;&lt;tr style='background-color: #f2f2f2;'&gt;&lt;th style='text-align: left;'&gt;Type&lt;/th&gt;&lt;th style='text-align: left;'&gt;Location&lt;/th&gt;&lt;th style='text-align: left;'&gt;Enriched Metrics&lt;/th&gt;&lt;/tr&gt;&lt;tr&gt;&lt;td&gt;IT/ITES&lt;/td&gt;&lt;td&gt;Village Kodathi, Varthur Hobli, Sarjapur Road, District Bangalore, Karnataka&lt;/td&gt;&lt;td&gt;&lt;b&gt;Varies Acres&lt;/b&gt; &lt;br&gt; Major cluster &lt;br&gt; &lt;i&gt;Multiple massive ORR/ECity parks&lt;/i&gt;&lt;/td&gt;&lt;/tr&gt;&lt;/table&gt;</description><styleUrl>#StyleIT</styleUrl><Polygon><outerBoundaryIs><LinearRing><coordinates>77.68949763084372,12.9098272,0 77.68947250543707,12.910107125512239,0 77.68939789263987,12.910378545629435,0 77.68927605952422,12.910633213388676,0 77.68911070792768,12.910863390838966,0 77.68890686197486,12.91106208415495,0 77.68867071542185,12.911223256140769,0 77.6884094434622,12.911342009667187,0 77.68813098471217,12.9114147364684,0 77.6878438,12.911439226777352,0 77.68755661528782,12.9114147364684,0 77.68727815653779,12.911342009667187,0 77.68701688457814,12.911223256140769,0 77.68678073802513,12.91106208415495,0 77.68657689207231,12.910863390838966,0 77.68641154047577,12.910633213388676,0 77.68628970736012,12.910378545629435,0 77.68621509456293,12.910107125512239,0 77.68618996915627,12.9098272,0 77.68621509456293,12.909547274487762,0 77.68628970736012,12.909275854370566,0 77.68641154047577,12.909021186611325,0 77.68657689207231,12.908791009161035,0 77.68678073802513,12.90859231584505,0 77.68701688457814,12.908431143859232,0 77.68727815653779,12.908312390332814,0 77.68755661528782,12.908239663531601,0 77.6878438,12.908215173222649,0 77.68813098471217,12.908239663531601,0 77.6884094434622,12.908312390332814,0 77.68867071542185,12.908431143859232,0 77.68890686197486,12.90859231584505,0 77.68911070792768,12.908791009161035,0 77.68927605952422,12.909021186611325,0 77.68939789263987,12.909275854370566,0 77.68947250543707,12.909547274487762,0 77.68949763084372,12.9098272,0</coordinates></LinearRing></outerBoundaryIs></Polygon></Placemark><Placemark><name>Amin Properties LLP...</name><description>&lt;h3&gt;SEZ: Amin Properties LLP&lt;/h3&gt;&lt;table border='1' cellpadding='4' style='border-collapse: collapse; width: 100%; font-family: sans-serif; font-size: 13px;'&gt;&lt;tr style='background-color: #f2f2f2;'&gt;&lt;th style='text-align: left;'&gt;Type&lt;/th&gt;&lt;th style='text-align: left;'&gt;Location&lt;/th&gt;&lt;th style='text-align: left;'&gt;Enriched Metrics&lt;/th&gt;&lt;/tr&gt;&lt;tr&gt;&lt;td&gt;IT/ITES&lt;/td&gt;&lt;td&gt;Pujanahalli Village, Devanahalli Taluk, Bangalore, Karnataka&lt;/td&gt;&lt;td&gt;No specific gathered data&lt;/td&gt;&lt;/tr&gt;&lt;/table&gt;</description><styleUrl>#StyleIT</styleUrl><Polygon><outerBoundaryIs><LinearRing><coordinates>77.658870084508,13.216271,0 77.65884492790157,13.216550925512239,0 77.65877022245304,13.216822345629435,0 77.65864823804966,13.217077013388677,0 77.6584826811258,13.217307190838966,0 77.65827858204482,13.217505884154951,0 77.658042142254,13.217667056140769,0 77.65778054585675,13.217785809667188,0 77.65750174132724,13.2178585364684,0 77.6572142,13.217883026777352,0 77.65692665867276,13.2178585364684,0 77.65664785414324,13.217785809667188,0 77.656386257746,13.217667056140769,0 77.65614981795518,13.217505884154951,0 77.6559457188742,13.217307190838966,0 77.65578016195033,13.217077013388677,0 77.65565817754695,13.216822345629435,0 77.65558347209843,13.216550925512239,0 77.655558315492,13.216271,0 77.65558347209843,13.215991074487762,0 77.65565817754695,13.215719654370567,0 77.65578016195033,13.215464986611325,0 77.6559457188742,13.215234809161036,0 77.65614981795518,13.21503611584505,0 77.656386257746,13.214874943859233,0 77.65664785414324,13.214756190332814,0 77.65692665867276,13.214683463531602,0 77.6572142,13.21465897322265,0 77.65750174132724,13.214683463531602,0 77.65778054585675,13.214756190332814,0 77.658042142254,13.214874943859233,0 77.65827858204482,13.21503611584505,0 77.6584826811258,13.215234809161036,0 77.65864823804966,13.215464986611325,0 77.65877022245304,13.215719654370567,0 77.65884492790157,13.215991074487762,0 77.658870084508,13.216271,0</coordinates></LinearRing></outerBoundaryIs></Polygon></Placemark><Placemark><name>Bagmane Developers Pvt. Ltd....</name><description>&lt;h3&gt;SEZ: Bagmane Developers Pvt. Ltd.&lt;/h3&gt;&lt;table border='1' cellpadding='4' style='border-collapse: collapse; width: 100%; font-family: sans-serif; font-size: 13px;'&gt;&lt;tr style='background-color: #f2f2f2;'&gt;&lt;th style='text-align: left;'&gt;Type&lt;/th&gt;&lt;th style='text-align: left;'&gt;Location&lt;/th&gt;&lt;th style='text-align: left;'&gt;Enriched Metrics&lt;/th&gt;&lt;/tr&gt;&lt;tr&gt;&lt;td&gt;IT/ITES&lt;/td&gt;&lt;td&gt;Outer Ring Road, Doddanekundi Circle, Marathalli Post, Bengaluru, Karnataka&lt;/td&gt;&lt;td&gt;No specific gathered data&lt;/td&gt;&lt;/tr&gt;&lt;/table&gt;</description><styleUrl>#StyleIT</styleUrl><Polygon><outerBoundaryIs><LinearRing><coordinates>77.6022145145016,12.9073569,0 77.60218938934321,12.907636825512238,0 77.60211477728329,12.907908245629434,0 77.60199294537152,12.908162913388676,0 77.60182759540889,12.908393090838965,0 77.60162375147034,12.90859178415495,0 77.6013876072508,12.908752956140768,0 77.60112633787287,12.908871709667187,0 77.6008478818744,12.9089444364684,0 77.6005607,12.908968926777352,0 77.6002735181256,12.9089444364684,0 77.59999506212714,12.908871709667187,0 77.5997337927492,12.908752956140768,0 77.59949764852966,12.90859178415495,0 77.59929380459111,12.908393090838965,0 77.59912845462848,12.908162913388676,0 77.59900662271671,12.907908245629434,0 77.5989320106568,12.907636825512238,0 77.59890688549841,12.9073569,0 77.5989320106568,12.907076974487762,0 77.59900662271671,12.906805554370566,0 77.59912845462848,12.906550886611324,0 77.59929380459111,12.906320709161035,0 77.59949764852966,12.90612201584505,0 77.5997337927492,12.905960843859232,0 77.59999506212714,12.905842090332813,0 77.6002735181256,12.9057693635316,0 77.6005607,12.905744873222648,0 77.6008478818744,12.9057693635316,0 77.60112633787287,12.905842090332813,0 77.6013876072508,12.905960843859232,0 77.60162375147034,12.90612201584505,0 77.60182759540889,12.906320709161035,0 77.60199294537152,12.906550886611324,0 77.60211477728329,12.906805554370566,0 77.60218938934321,12.907076974487762,0 77.6022145145016,12.9073569,0</coordinates></LinearRing></outerBoundaryIs></Polygon></Placemark><Placemark><name>Brigade Properties Pvt. Ltd. (Formerly B...</name><description>&lt;h3&gt;SEZ: Brigade Properties Pvt. Ltd. (Formerly Brookefields Real Estates and Projects Pvt. Ltd., Brooke Bond Real Estates Private Limited)&lt;/h3&gt;&lt;table border='1' cellpadding='4' style='border-collapse: collapse; width: 100%; font-family: sans-serif; font-size: 13px;'&gt;&lt;tr style='background-color: #f2f2f2;'&gt;&lt;th style='text-align: left;'&gt;Type&lt;/th&gt;&lt;th style='text-align: left;'&gt;Location&lt;/th&gt;&lt;th style='text-align: left;'&gt;Enriched Metrics&lt;/th&gt;&lt;/tr&gt;&lt;tr&gt;&lt;td&gt;IT/ITES/BPO/EH&lt;/td&gt;&lt;td&gt;Bangalore, Karnataka&lt;/td&gt;&lt;td&gt;No specific gathered data&lt;/td&gt;&lt;/tr&gt;&lt;/table&gt;</description><styleUrl>#StyleIT</styleUrl><Polygon><outerBoundaryIs><LinearRing><coordinates>77.59173627515104,12.9767936,0 77.59171114299436,12.977073525512239,0 77.59163651015217,12.977344945629435,0 77.59151464430565,12.977599613388676,0 77.59134924828683,12.977829790838966,0 77.59114534757009,12.978028484154951,0 77.59090913757551,12.978189656140769,0 77.59064779542425,12.978308409667187,0 77.59036926186533,12.9783811364684,0 77.590082,12.978405626777352,0 77.58979473813466,12.9783811364684,0 77.58951620457574,12.978308409667187,0 77.58925486242448,12.978189656140769,0 77.5890186524299,12.978028484154951,0 77.58881475171316,12.977829790838966,0 77.58864935569434,12.977599613388676,0 77.58852748984782,12.977344945629435,0 77.58845285700563,12.977073525512239,0 77.58842772484896,12.9767936,0 77.58845285700563,12.976513674487762,0 77.58852748984782,12.976242254370566,0 77.58864935569434,12.975987586611325,0 77.58881475171316,12.975757409161035,0 77.5890186524299,12.97555871584505,0 77.58925486242448,12.975397543859232,0 77.58951620457574,12.975278790332814,0 77.58979473813466,12.975206063531601,0 77.590082,12.975181573222649,0 77.59036926186533,12.975206063531601,0 77.59064779542425,12.975278790332814,0 77.59090913757551,12.975397543859232,0 77.59114534757009,12.97555871584505,0 77.59134924828683,12.975757409161035,0 77.59151464430565,12.975987586611325,0 77.59163651015217,12.976242254370566,0 77.59171114299436,12.976513674487762,0 77.59173627515104,12.9767936,0</coordinates></LinearRing></outerBoundaryIs></Polygon></Placemark><Placemark><name>Infosys Limited...</name><description>&lt;h3&gt;SEZ: Infosys Limited&lt;/h3&gt;&lt;table border='1' cellpadding='4' style='border-collapse: collapse; width: 100%; font-family: sans-serif; font-size: 13px;'&gt;&lt;tr style='background-color: #f2f2f2;'&gt;&lt;th style='text-align: left;'&gt;Type&lt;/th&gt;&lt;th style='text-align: left;'&gt;Location&lt;/th&gt;&lt;th style='text-align: left;'&gt;Enriched Metrics&lt;/th&gt;&lt;/tr&gt;&lt;tr&gt;&lt;td&gt;IT/ITES&lt;/td&gt;&lt;td&gt;Electronic City, Doddathogur Village, Begur Hobli, Bangalore, Karnataka&lt;/td&gt;&lt;td&gt;&lt;b&gt;80+ Acres&lt;/b&gt; &lt;br&gt; Massive hub &lt;br&gt; &lt;i&gt;Electronic City powerhouse&lt;/i&gt;&lt;/td&gt;&lt;/tr&gt;&lt;/table&gt;</description><styleUrl>#StyleIT</styleUrl><Polygon><outerBoundaryIs><LinearRing><coordinates>77.66803173766279,12.8502503,0 77.66800661822944,12.85053022551224,0 77.66793202317065,12.850801645629435,0 77.66781021901956,12.851056313388677,0 77.66764490673363,12.851286490838966,0 77.66744110924303,12.851485184154951,0 77.6672050188314,12.851646356140769,0 77.66694380898642,12.851765109667188,0 77.66666541643703,12.8518378364684,0 77.6663783,12.851862326777352,0 77.66609118356298,12.8518378364684,0 77.6658127910136,12.851765109667188,0 77.66555158116861,12.851646356140769,0 77.66531549075698,12.851485184154951,0 77.66511169326638,12.851286490838966,0 77.66494638098045,12.851056313388677,0 77.66482457682936,12.850801645629435,0 77.66474998177057,12.85053022551224,0 77.66472486233722,12.8502503,0 77.66474998177057,12.849970374487762,0 77.66482457682936,12.849698954370567,0 77.66494638098045,12.849444286611325,0 77.66511169326638,12.849214109161036,0 77.66531549075698,12.84901541584505,0 77.66555158116861,12.848854243859233,0 77.6658127910136,12.848735490332814,0 77.66609118356298,12.848662763531602,0 77.6663783,12.84863827322265,0 77.66666541643703,12.848662763531602,0 77.66694380898642,12.848735490332814,0 77.6672050188314,12.848854243859233,0 77.66744110924303,12.84901541584505,0 77.66764490673363,12.849214109161036,0 77.66781021901956,12.849444286611325,0 77.66793202317065,12.849698954370567,0 77.66800661822944,12.849970374487762,0 77.66803173766279,12.8502503,0</coordinates></LinearRing></outerBoundaryIs></Polygon></Placemark><Placemark><name>L &amp; T Realty Developers Ltd....</name><description>&lt;h3&gt;SEZ: L &amp; T Realty Developers Ltd.&lt;/h3&gt;&lt;table border='1' cellpadding='4' style='border-collapse: collapse; width: 100%; font-family: sans-serif; font-size: 13px;'&gt;&lt;tr style='background-color: #f2f2f2;'&gt;&lt;th style='text-align: left;'&gt;Type&lt;/th&gt;&lt;th style='text-align: left;'&gt;Location&lt;/th&gt;&lt;th style='text-align: left;'&gt;Enriched Metrics&lt;/th&gt;&lt;/tr&gt;&lt;tr&gt;&lt;td&gt;IT/ITES&lt;/td&gt;&lt;td&gt;L&amp;T Campus, Bellary Road, Village Byatarayanapura, Next to GKVK, District Bangalore, Karnataka&lt;/td&gt;&lt;td&gt;No specific gathered data&lt;/td&gt;&lt;/tr&gt;&lt;/table&gt;</description><styleUrl>#StyleIT</styleUrl><Polygon><outerBoundaryIs><LinearRing><coordinates>77.59503243914003,12.8504747,0 77.59500731968423,12.850754625512238,0 77.5949327245588,12.851026045629434,0 77.59481092029887,12.851280713388675,0 77.59464560786525,12.851510890838965,0 77.59444181019258,12.85170958415495,0 77.59420571957001,12.851870756140768,0 77.59394450949165,12.851989509667186,0 77.59366611669354,12.852062236468399,0 77.593379,12.852086726777351,0 77.59309188330646,12.852062236468399,0 77.59281349050835,12.851989509667186,0 77.59255228042998,12.851870756140768,0 77.59231618980742,12.85170958415495,0 77.59211239213475,12.851510890838965,0 77.59194707970113,12.851280713388675,0 77.5918252754412,12.851026045629434,0 77.59175068031577,12.850754625512238,0 77.59172556085997,12.8504747,0 77.59175068031577,12.850194774487761,0 77.5918252754412,12.849923354370565,0 77.59194707970113,12.849668686611324,0 77.59211239213475,12.849438509161034,0 77.59231618980742,12.84923981584505,0 77.59255228042998,12.849078643859231,0 77.59281349050835,12.848959890332813,0 77.59309188330646,12.8488871635316,0 77.593379,12.848862673222648,0 77.59366611669354,12.8488871635316,0 77.59394450949165,12.848959890332813,0 77.59420571957001,12.849078643859231,0 77.59444181019258,12.84923981584505,0 77.59464560786525,12.849438509161034,0 77.59481092029887,12.849668686611324,0 77.5949327245588,12.849923354370565,0 77.59500731968423,12.850194774487761,0 77.59503243914003,12.8504747,0</coordinates></LinearRing></outerBoundaryIs></Polygon></Placemark><Placemark><name>Embassy Property Developments Private Li...</name><description>&lt;h3&gt;SEZ: Embassy Property Developments Private Limited&lt;/h3&gt;&lt;table border='1' cellpadding='4' style='border-collapse: collapse; width: 100%; font-family: sans-serif; font-size: 13px;'&gt;&lt;tr style='background-color: #f2f2f2;'&gt;&lt;th style='text-align: left;'&gt;Type&lt;/th&gt;&lt;th style='text-align: left;'&gt;Location&lt;/th&gt;&lt;th style='text-align: left;'&gt;Enriched Metrics&lt;/th&gt;&lt;/tr&gt;&lt;tr&gt;&lt;td&gt;IT/ITES&lt;/td&gt;&lt;td&gt;Outer Ring Road, Rachenahalli Village, Bangalore, Karnataka&lt;/td&gt;&lt;td&gt;No specific gathered data&lt;/td&gt;&lt;/tr&gt;&lt;/table&gt;</description><styleUrl>#StyleIT</styleUrl><Polygon><outerBoundaryIs><LinearRing><coordinates>77.6022145145016,12.9073569,0 77.60218938934321,12.907636825512238,0 77.60211477728329,12.907908245629434,0 77.60199294537152,12.908162913388676,0 77.60182759540889,12.908393090838965,0 77.60162375147034,12.90859178415495,0 77.6013876072508,12.908752956140768,0 77.60112633787287,12.908871709667187,0 77.6008478818744,12.9089444364684,0 77.6005607,12.908968926777352,0 77.6002735181256,12.9089444364684,0 77.59999506212714,12.908871709667187,0 77.5997337927492,12.908752956140768,0 77.59949764852966,12.90859178415495,0 77.59929380459111,12.908393090838965,0 77.59912845462848,12.908162913388676,0 77.59900662271671,12.907908245629434,0 77.5989320106568,12.907636825512238,0 77.59890688549841,12.9073569,0 77.5989320106568,12.907076974487762,0 77.59900662271671,12.906805554370566,0 77.59912845462848,12.906550886611324,0 77.59929380459111,12.906320709161035,0 77.59949764852966,12.90612201584505,0 77.5997337927492,12.905960843859232,0 77.59999506212714,12.905842090332813,0 77.6002735181256,12.9057693635316,0 77.6005607,12.905744873222648,0 77.6008478818744,12.9057693635316,0 77.60112633787287,12.905842090332813,0 77.6013876072508,12.905960843859232,0 77.60162375147034,12.90612201584505,0 77.60182759540889,12.906320709161035,0 77.60199294537152,12.906550886611324,0 77.60211477728329,12.906805554370566,0 77.60218938934321,12.907076974487762,0 77.6022145145016,12.9073569,0</coordinates></LinearRing></outerBoundaryIs></Polygon></Placemark></Folder></Document></kml>